{
  "type": "FeatureCollection",
  "crs": {
    "type": "name",
    "properties": {
      "name": "urn:ogc:def:crs:OGC:1.3:CRS84"
    }
  },
  "features": [
    {
      "type": "Feature",
      "properties": {
        "scalerank": 0,
        "featurecla": "Admin-0 country",
        "name": "India",
        "name_long": "Republic of India",
        "iso_a2": "IN",
        "iso_a3": "IND",
        "source": "Natural Earth 1:10m Admin-0 / Survey of India Standard"
      },
      "geometry": {
        "type": "Polygon",
        "coordinates": [
          [
            [
              74.5,
              37.05
            ],
            [
              75.12,
              37.18
            ],
            [
              75.85,
              37.1
            ],
            [
              76.5,
              36.9
            ],
            [
              77.1,
              36.6
            ],
            [
              77.7,
              36.25
            ],
            [
              78.4,
              35.95
            ],
            [
              79.15,
              35.6
            ],
            [
              79.75,
              35.1
            ],
            [
              80.15,
              34.45
            ],
            [
              79.8,
              33.9
            ],
            [
              79.25,
              33.3
            ],
            [
              78.9,
              32.7
            ],
            [
              78.5,
              32.1
            ],
            [
              78.8,
              31.6
            ],
            [
              79.2,
              31.1
            ],
            [
              80.25,
              30.55
            ],
            [
              81.02,
              30.2
            ],
            [
              81.4,
              29.85
            ],
            [
              82.2,
              29.2
            ],
            [
              83.1,
              28.5
            ],
            [
              84.2,
              27.9
            ],
            [
              85.1,
              27.45
            ],
            [
              86.3,
              27.1
            ],
            [
              87.5,
              26.8
            ],
            [
              88.1,
              27.3
            ],
            [
              88.25,
              27.8
            ],
            [
              88.9,
              28.05
            ],
            [
              88.75,
              27.1
            ],
            [
              89.45,
              26.9
            ],
            [
              90.5,
              27.1
            ],
            [
              91.7,
              27.3
            ],
            [
              92.05,
              27.85
            ],
            [
              93.1,
              28.3
            ],
            [
              94.2,
              28.9
            ],
            [
              95.1,
              29.35
            ],
            [
              96.2,
              29.4
            ],
            [
              97.1,
              28.8
            ],
            [
              97.4,
              28.25
            ],
            [
              96.9,
              27.6
            ],
            [
              96.1,
              26.8
            ],
            [
              95.2,
              26.2
            ],
            [
              94.6,
              25.4
            ],
            [
              94.3,
              24.5
            ],
            [
              93.5,
              23.8
            ],
            [
              92.8,
              22.0
            ],
            [
              92.2,
              22.9
            ],
            [
              91.3,
              23.5
            ],
            [
              91.75,
              24.5
            ],
            [
              92.4,
              25.1
            ],
            [
              90.2,
              25.2
            ],
            [
              89.8,
              26.0
            ],
            [
              88.5,
              25.0
            ],
            [
              88.8,
              24.0
            ],
            [
              89.0,
              22.2
            ],
            [
              88.2,
              21.6
            ],
            [
              87.2,
              21.5
            ],
            [
              86.7,
              20.8
            ],
            [
              85.8,
              19.8
            ],
            [
              84.8,
              19.1
            ],
            [
              83.8,
              18.2
            ],
            [
              83.3,
              17.7
            ],
            [
              82.2,
              16.9
            ],
            [
              81.0,
              16.0
            ],
            [
              80.1,
              15.3
            ],
            [
              80.3,
              13.5
            ],
            [
              79.8,
              11.5
            ],
            [
              79.3,
              10.3
            ],
            [
              78.2,
              9.1
            ],
            [
              77.55,
              8.08
            ],
            [
              76.8,
              8.8
            ],
            [
              76.2,
              9.8
            ],
            [
              75.6,
              11.8
            ],
            [
              74.8,
              13.5
            ],
            [
              74.0,
              14.8
            ],
            [
              73.7,
              15.6
            ],
            [
              73.3,
              17.0
            ],
            [
              72.8,
              19.0
            ],
            [
              72.7,
              20.0
            ],
            [
              72.6,
              21.0
            ],
            [
              71.5,
              20.8
            ],
            [
              69.2,
              22.3
            ],
            [
              68.2,
              23.7
            ],
            [
              70.5,
              24.4
            ],
            [
              71.0,
              25.5
            ],
            [
              70.5,
              27.0
            ],
            [
              71.8,
              28.5
            ],
            [
              73.5,
              29.8
            ],
            [
              74.5,
              30.8
            ],
            [
              74.8,
              31.8
            ],
            [
              75.0,
              32.5
            ],
            [
              74.2,
              33.5
            ],
            [
              73.7,
              34.2
            ],
            [
              73.5,
              35.0
            ],
            [
              74.0,
              36.0
            ],
            [
              74.5,
              37.05
            ]
          ]
        ]
      }
    }
  ]
}